[{"ORDINAL":"1","COMMENT":"GENERATED VIA SPACETRACK.ORG API","ORIGINATOR":"JSPOC","NORAD_CAT_ID":"20788","OBJECT_NAME":"FENGYUN 1B","OBJECT_TYPE":"PAYLOAD","CLASSIFICATION_TYPE":"U","INTLDES":"90081A","EPOCH":"2016-06-22 22:12:05","EPOCH_MICROSECONDS":"680800","MEAN_MOTION":"14.02645187","ECCENTRICITY":"0.0017168","INCLINATION":"98.8841","RA_OF_ASC_NODE":"205.42","ARG_OF_PERICENTER":"64.3504","MEAN_ANOMALY":"295.9434","EPHEMERIS_TYPE":"0","ELEMENT_SET_NO":"999","REV_AT_EPOCH":"32033","BSTAR":"-3.3367e-05","MEAN_MOTION_DOT":"-9.5e-07","MEAN_MOTION_DDOT":"0","FILE":"2050785","TLE_LINE0":"0 FENGYUN 1B","TLE_LINE1":"1 20788U 90081A   16174.92506575 -.00000095 +00000-0 -33367-4 0  9993","TLE_LINE2":"2 20788 098.8841 205.4200 0017168 064.3504 295.9434 14.02645187320338","OBJECT_ID":"1990-081A","OBJECT_NUMBER":"20788","SEMIMAJOR_AXIS":"7262.786","PERIOD":"102.663","APOGEE":"897.120","PERIGEE":"872.182"},{"ORDINAL":"1","COMMENT":"GENERATED VIA SPACETRACK.ORG API","ORIGINATOR":"JSPOC","NORAD_CAT_ID":"20804","OBJECT_NAME":"COSMOS 2100","OBJECT_TYPE":"PAYLOAD","CLASSIFICATION_TYPE":"U","INTLDES":"90083A","EPOCH":"2016-06-22 22:45:01","EPOCH_MICROSECONDS":"963296","MEAN_MOTION":"13.74289368","ECCENTRICITY":"0.0036866","INCLINATION":"82.9387","RA_OF_ASC_NODE":"347.2612","ARG_OF_PERICENTER":"0.8789","MEAN_ANOMALY":"153.0869","EPHEMERIS_TYPE":"0","ELEMENT_SET_NO":"999","REV_AT_EPOCH":"29238","BSTAR":"-4.694e-06","MEAN_MOTION_DOT":"1.1e-07","MEAN_MOTION_DDOT":"0","FILE":"2050785","TLE_LINE0":"0 COSMOS 2100","TLE_LINE1":"1 20804U 90083A   16174.94793939 +.00000011 +00000-0 -46940-5 0  9997","TLE_LINE2":"2 20804 082.9387 347.2612 0036866 000.8789 153.0869 13.74289368292386","OBJECT_ID":"1990-083A","OBJECT_NUMBER":"20804","SEMIMAJOR_AXIS":"7362.348","PERIOD":"104.781","APOGEE":"1011.355","PERIGEE":"957.071"},{"ORDINAL":"1","COMMENT":"GENERATED VIA SPACETRACK.ORG API","ORIGINATOR":"JSPOC","NORAD_CAT_ID":"20826","OBJECT_NAME":"METEOR 2-20","OBJECT_TYPE":"PAYLOAD","CLASSIFICATION_TYPE":"U","INTLDES":"90086A","EPOCH":"2016-06-23 05:22:02","EPOCH_MICROSECONDS":"733600","MEAN_MOTION":"13.84209267","ECCENTRICITY":"0.0013656","INCLINATION":"82.5246","RA_OF_ASC_NODE":"222.6958","ARG_OF_PERICENTER":"169.6481","MEAN_ANOMALY":"253.055","EPHEMERIS_TYPE":"0","ELEMENT_SET_NO":"999","REV_AT_EPOCH":"30009","BSTAR":"-9.9759e-06","MEAN_MOTION_DOT":"4e-08","MEAN_MOTION_DDOT":"0","FILE":"2050552","TLE_LINE0":"0 METEOR 2-20","TLE_LINE1":"1 20826U 90086A   16175.22364275  .00000004  00000-0 -99759-5 0  9991","TLE_LINE2":"2 20826  82.5246 222.6958 0013656 169.6481 253.0550 13.84209267300091","OBJECT_ID":"1990-086A","OBJECT_NUMBER":"20826","SEMIMAJOR_AXIS":"7327.131","PERIOD":"104.030","APOGEE":"959.002","PERIGEE":"938.990"},{"ORDINAL":"1","COMMENT":"GENERATED VIA SPACETRACK.ORG API","ORIGINATOR":"JSPOC","NORAD_CAT_ID":"20830","OBJECT_NAME":"NAVSTAR 21 (USA 64)","OBJECT_TYPE":"PAYLOAD","CLASSIFICATION_TYPE":"U","INTLDES":"90088A","EPOCH":"2016-06-23 10:30:41","EPOCH_MICROSECONDS":"116896","MEAN_MOTION":"1.87754395","ECCENTRICITY":"0.001899","INCLINATION":"54.1009","RA_OF_ASC_NODE":"136.4623","ARG_OF_PERICENTER":"222.6579","MEAN_ANOMALY":"248.4926","EPHEMERIS_TYPE":"0","ELEMENT_SET_NO":"999","REV_AT_EPOCH":"18441","BSTAR":"0","MEAN_MOTION_DOT":"4.5e-07","MEAN_MOTION_DDOT":"0","FILE":"2050733","TLE_LINE0":"0 NAVSTAR 21 (USA 64)","TLE_LINE1":"1 20830U 90088A   16175.43797589  .00000045  00000-0  00000+0 0  9998","TLE_LINE2":"2 20830  54.1009 136.4623 0018990 222.6579 248.4926  1.87754395184411","OBJECT_ID":"1990-088A","OBJECT_NUMBER":"20830","SEMIMAJOR_AXIS":"27755.034","PERIOD":"766.959","APOGEE":"21429.606","PERIGEE":"21324.192"},{"ORDINAL":"1","COMMENT":"GENERATED VIA SPACETRACK.ORG API","ORIGINATOR":"JSPOC","NORAD_CAT_ID":"20872","OBJECT_NAME":"SBS 6","OBJECT_TYPE":"PAYLOAD","CLASSIFICATION_TYPE":"U","INTLDES":"90091A","EPOCH":"2016-06-21 11:27:35","EPOCH_MICROSECONDS":"483328","MEAN_MOTION":"0.98995339","ECCENTRICITY":"0.0007258","INCLINATION":"7.2335","RA_OF_ASC_NODE":"52.8598","ARG_OF_PERICENTER":"58.5649","MEAN_ANOMALY":"146.0825","EPHEMERIS_TYPE":"0","ELEMENT_SET_NO":"999","REV_AT_EPOCH":"8212","BSTAR":"0","MEAN_MOTION_DOT":"-1.97e-06","MEAN_MOTION_DDOT":"0","FILE":"2050282","TLE_LINE0":"0 SBS 6","TLE_LINE1":"1 20872U 90091A   16173.47749402 -.00000197 +00000-0 +00000-0 0  9991","TLE_LINE2":"2 20872 007.2335 052.8598 0007258 058.5649 146.0825 00.98995339082121","OBJECT_ID":"1990-091A","OBJECT_NUMBER":"20872","SEMIMAJOR_AXIS":"42526.405","PERIOD":"1454.613","APOGEE":"36179.136","PERIGEE":"36117.404"},{"ORDINAL":"1","COMMENT":"GENERATED VIA SPACETRACK.ORG API","ORIGINATOR":"JSPOC","NORAD_CAT_ID":"20873","OBJECT_NAME":"GALAXY 6","OBJECT_TYPE":"PAYLOAD","CLASSIFICATION_TYPE":"U","INTLDES":"90091B","EPOCH":"2016-06-22 10:17:17","EPOCH_MICROSECONDS":"299680","MEAN_MOTION":"0.9975683","ECCENTRICITY":"0.0005381","INCLINATION":"11.1273","RA_OF_ASC_NODE":"38.6389","ARG_OF_PERICENTER":"142.5264","MEAN_ANOMALY":"154.3789","EPHEMERIS_TYPE":"0","ELEMENT_SET_NO":"999","REV_AT_EPOCH":"8840","BSTAR":"0","MEAN_MOTION_DOT":"-1.26e-06","MEAN_MOTION_DDOT":"0","FILE":"2050184","TLE_LINE0":"0 GALAXY 6","TLE_LINE1":"1 20873U 90091B   16174.42867245 -.00000126  00000-0  00000+0 0  9995","TLE_LINE2":"2 20873  11.1273  38.6389 0005381 142.5264 154.3789  0.99756830 88409","OBJECT_ID":"1990-091B","OBJECT_NUMBER":"20873","SEMIMAJOR_AXIS":"42309.713","PERIOD":"1443.510","APOGEE":"35954.345","PERIGEE":"35908.811"},{"ORDINAL":"1","COMMENT":"GENERATED VIA SPACETRACK.ORG API","ORIGINATOR":"JSPOC","NORAD_CAT_ID":"20918","OBJECT_NAME":"INMARSAT 2-F1","OBJECT_TYPE":"PAYLOAD","CLASSIFICATION_TYPE":"U","INTLDES":"90093A","EPOCH":"2016-06-23 05:26:44","EPOCH_MICROSECONDS":"268864","MEAN_MOTION":"0.98872015","ECCENTRICITY":"0.0005896","INCLINATION":"11.0213","RA_OF_ASC_NODE":"30.7815","ARG_OF_PERICENTER":"261.7922","MEAN_ANOMALY":"98.1435","EPHEMERIS_TYPE":"0","ELEMENT_SET_NO":"999","REV_AT_EPOCH":"9020","BSTAR":"0.0001","MEAN_MOTION_DOT":"0","MEAN_MOTION_DDOT":"0","FILE":"2050783","TLE_LINE0":"0 INMARSAT 2-F1","TLE_LINE1":"1 20918U 90093A   16175.22690126  .00000000  00000-0  10000-3 0  9993","TLE_LINE2":"2 20918  11.0213  30.7815 0005896 261.7922  98.1435  0.98872015 90202","OBJECT_ID":"1990-093A","OBJECT_NUMBER":"20918","SEMIMAJOR_AXIS":"42561.760","PERIOD":"1456.428","APOGEE":"36208.720","PERIGEE":"36158.531"},{"ORDINAL":"1","COMMENT":"GENERATED VIA SPACETRACK.ORG API","ORIGINATOR":"JSPOC","NORAD_CAT_ID":"20923","OBJECT_NAME":"GORIZONT 21","OBJECT_TYPE":"PAYLOAD","CLASSIFICATION_TYPE":"U","INTLDES":"90094A","EPOCH":"2016-06-22 22:26:11","EPOCH_MICROSECONDS":"453856","MEAN_MOTION":"1.00388073","ECCENTRICITY":"0.0007446","INCLINATION":"15.0156","RA_OF_ASC_NODE":"9.0911","ARG_OF_PERICENTER":"180.6467","MEAN_ANOMALY":"152.363","EPHEMERIS_TYPE":"0","ELEMENT_SET_NO":"999","REV_AT_EPOCH":"9388","BSTAR":"0","MEAN_MOTION_DOT":"-2.99e-06","MEAN_MOTION_DDOT":"0","FILE":"2050785","TLE_LINE0":"0 GORIZONT 21","TLE_LINE1":"1 20923U 90094A   16174.93485479 -.00000299 +00000-0 +00000-0 0  9997","TLE_LINE2":"2 20923 015.0156 009.0911 0007446 180.6467 152.3630 01.00388073093887","OBJECT_ID":"1990-094A","OBJECT_NUMBER":"20923","SEMIMAJOR_AXIS":"42132.163","PERIOD":"1434.433","APOGEE":"35785.400","PERIGEE":"35722.657"},{"ORDINAL":"1","COMMENT":"GENERATED VIA SPACETRACK.ORG API","ORIGINATOR":"JSPOC","NORAD_CAT_ID":"20945","OBJECT_NAME":"SATCOM C1","OBJECT_TYPE":"PAYLOAD","CLASSIFICATION_TYPE":"U","INTLDES":"90100A","EPOCH":"2016-06-22 20:46:33","EPOCH_MICROSECONDS":"314304","MEAN_MOTION":"0.9918339","ECCENTRICITY":"0.0008548","INCLINATION":"9.8894","RA_OF_ASC_NODE":"41.2447","ARG_OF_PERICENTER":"293.4301","MEAN_ANOMALY":"66.4595","EPHEMERIS_TYPE":"0","ELEMENT_SET_NO":"999","REV_AT_EPOCH":"9107","BSTAR":"0.0001","MEAN_MOTION_DOT":"0","MEAN_MOTION_DDOT":"0","FILE":"2050726","TLE_LINE0":"0 SATCOM C1","TLE_LINE1":"1 20945U 90100A   16174.86566336  .00000000  00000-0  10000-3 0  9996","TLE_LINE2":"2 20945   9.8894  41.2447 0008548 293.4301  66.4595  0.99183390 91073","OBJECT_ID":"1990-100A","OBJECT_NUMBER":"20945","SEMIMAJOR_AXIS":"42472.635","PERIOD":"1451.856","APOGEE":"36130.805","PERIGEE":"36058.194"},{"ORDINAL":"1","COMMENT":"GENERATED VIA SPACETRACK.ORG API","ORIGINATOR":"JSPOC","NORAD_CAT_ID":"20946","OBJECT_NAME":"GSTAR 4","OBJECT_TYPE":"PAYLOAD","CLASSIFICATION_TYPE":"U","INTLDES":"90100B","EPOCH":"2016-06-22 08:04:59","EPOCH_MICROSECONDS":"445696","MEAN_MOTION":"0.9914651","ECCENTRICITY":"0.0006701","INCLINATION":"11.3507","RA_OF_ASC_NODE":"38.6346","ARG_OF_PERICENTER":"222.7979","MEAN_ANOMALY":"310.4639","EPHEMERIS_TYPE":"0","ELEMENT_SET_NO":"999","REV_AT_EPOCH":"1065","BSTAR":"0","MEAN_MOTION_DOT":"-1.65e-06","MEAN_MOTION_DDOT":"0","FILE":"2050785","TLE_LINE0":"0 GSTAR 4","TLE_LINE1":"1 20946U 90100B   16174.33679914 -.00000165 +00000-0 +00000-0 0  9995","TLE_LINE2":"2 20946 011.3507 038.6346 0006701 222.7979 310.4639 00.99146510010655","OBJECT_ID":"1990-100B","OBJECT_NUMBER":"20946","SEMIMAJOR_AXIS":"42483.167","PERIOD":"1452.396","APOGEE":"36133.500","PERIGEE":"36076.564"},{"ORDINAL":"1","COMMENT":"GENERATED VIA SPACETRACK.ORG API","ORIGINATOR":"JSPOC","NORAD_CAT_ID":"20953","OBJECT_NAME":"GORIZONT 22","OBJECT_TYPE":"PAYLOAD","CLASSIFICATION_TYPE":"U","INTLDES":"90102A","EPOCH":"2016-06-22 17:31:34","EPOCH_MICROSECONDS":"283424","MEAN_MOTION":"1.00203273","ECCENTRICITY":"0.0005329","INCLINATION":"14.941","RA_OF_ASC_NODE":"9.3635","ARG_OF_PERICENTER":"240.0723","MEAN_ANOMALY":"310.9048","EPHEMERIS_TYPE":"0","ELEMENT_SET_NO":"999","REV_AT_EPOCH":"9383","BSTAR":"0","MEAN_MOTION_DOT":"1.07e-06","MEAN_MOTION_DDOT":"0","FILE":"2050353","TLE_LINE0":"0 GORIZONT 22","TLE_LINE1":"1 20953U 90102A   16174.73025791  .00000107  00000-0  00000+0 0  9991","TLE_LINE2":"2 20953  14.9410   9.3635 0005329 240.0723 310.9048  1.00203273 93839","OBJECT_ID":"1990-102A","OBJECT_NUMBER":"20953","SEMIMAJOR_AXIS":"42183.949","PERIOD":"1437.078","APOGEE":"35828.294","PERIGEE":"35783.334"}]